{"fetched_at":"2026-03-29T16:36:15Z","count":15609,"tles":[{"name":"STARLINK-4607","line1":"1 53740U 22107AS  26087.62576023  .00001485  00000+0  11140-3 0  9992","line2":"2 53740  53.2181 179.0081 0001367  84.8293 275.2855 15.08836901197459","category":"Starlink"}]}