{
  "norad_id": 53740,
  "name": "STARLINK-4607",
  "history": [
    {
      "epoch": "2026-03-28T15:01:05.683872",
      "apogee_km": 540.6985369275944,
      "perigee_km": 538.8071858394915,
      "latitude_deg": -51.08499535674178,
      "longitude_deg": -25.92701791995205,
      "semi_major_axis_km": 6917.889861383543,
      "eccentricity": 0.0001367,
      "inclination_deg": 53.2181,
      "raan_deg": 179.0081,
      "arg_perigee_deg": 84.8293,
      "mean_anomaly_deg": 275.2855,
      "mean_motion_rev_day": 15.08836901
    }
  ]
}